ONEWEB-0346             
1 49212U 21083AC  24061.77377973  .00000024  00000+0  27651-4 0  9995
2 49212  87.9223 142.1481 0002218 115.1830 244.9532 13.18685656119610
ONEWEB-0348             
1 49213U 21083AD  24061.77433055  .00000070  00000+0  13898-3 0  9998
2 49213  87.9126  81.1072 0001876 114.6788 245.4541 13.20771654126279
ONEWEB-0350             
1 49214U 21083AE  24061.69954889  .00000324  00000+0  85242-3 0  9997
2 49214  87.8967 126.9379 0001766 113.9761 246.1553 13.13472248120994
ONEWEB-0351             
1 49215U 21083AF  24061.76801757  .00000135  00000+0  30084-3 0  9995
2 49215  87.9122  81.1124 0001752  79.8854 280.2477 13.20771841126233
ONEWEB-0354             
1 49217U 21083AH  24061.79326981  .00000041  00000+0  69686-4 0  9998
2 49217  87.9126  81.0885 0001566  96.2294 263.9018 13.20771298126275
ONEWEB-0355             
1 49218U 21083AJ  24061.71067155  .00000286  00000+0  74733-3 0  9995
2 49218  87.8970 126.9631 0001789 100.5512 259.5819 13.13467788120967
ONEWEB-0357             
1 49219U 21083AK  24061.79011189  .00000063  00000+0  12411-3 0  9998
2 49219  87.9124  81.1110 0001853  94.9870 265.1475 13.20771182126274
